start=new Date('2021-09-03T00:00:00.000Z').valueOf();
sats=[{"COUNTRY_CODE":"US","OBJECT_NAME":"STARLINK-1890","RA_OF_ASC_NODE":"145.2908","MEAN_MOTION_DOT":"0.00001234","PERIOD":"95.592","MEAN_MOTION":"15.06397637","SITE":"AFETR","MEAN_ELEMENT_THEORY":"SGP4","TLE_LINE1":"1 47173U 20088BD  21245.46226268  .00001234  00000-0  10175-3 0  9997","NORAD_CAT_ID":"47173","TLE_LINE2":"2 47173  53.0545 145.2908 0001927  63.4353 296.6833 15.06397637 43267","INCLINATION":"53.0545","OBJECT_TYPE":"PAYLOAD","FILE":"3107538","BSTAR":"0.00010175000000","ARG_OF_PERICENTER":"63.4353","REF_FRAME":"TEME","MEAN_MOTION_DDOT":"0.0000000000000","PERIAPSIS":"545.886","APOAPSIS":"548.555","CLASSIFICATION_TYPE":"U","SEMIMAJOR_AXIS":"6925.356","TIME_SYSTEM":"UTC","CENTER_NAME":"EARTH","ELEMENT_SET_NO":"999","MEAN_ANOMALY":"296.6833","EPOCH":"2021-09-02T11:05:39.495552","EPHEMERIS_TYPE":"0","DECAY_DATE":null,"LAUNCH_DATE":"2020-11-25","RCS_SIZE":"LARGE","GP_ID":"183961000","REV_AT_EPOCH":"4326","OBJECT_ID":"2020-088BD","ECCENTRICITY":"0.00019270"},{"NORAD_CAT_ID":"47174","TLE_LINE1":"1 47174U 20088BE  21245.20520219  .00001244  00000-0  10242-3 0  9999","MEAN_ELEMENT_THEORY":"SGP4","SITE":"AFETR","MEAN_MOTION_DDOT":"0.0000000000000","REF_FRAME":"TEME","FILE":"3107538","ARG_OF_PERICENTER":"63.6877","BSTAR":"0.00010242000000","INCLINATION":"53.0547","TLE_LINE2":"2 47174  53.0547 146.4483 0001742  63.6877 296.4291 15.06389278 43223","OBJECT_TYPE":"PAYLOAD","RA_OF_ASC_NODE":"146.4483","OBJECT_NAME":"STARLINK-1891","COUNTRY_CODE":"US","PERIOD":"95.593","MEAN_MOTION":"15.06389278","MEAN_MOTION_DOT":"0.00001244","ECCENTRICITY":"0.00017420","GP_ID":"183961255","REV_AT_EPOCH":"4322","RCS_SIZE":"LARGE","OBJECT_ID":"2020-088BE","LAUNCH_DATE":"2020-11-25","TIME_SYSTEM":"UTC","PERIAPSIS":"546.040","APOAPSIS":"548.453","CLASSIFICATION_TYPE":"U","SEMIMAJOR_AXIS":"6925.381","DECAY_DATE":null,"EPHEMERIS_TYPE":"0","EPOCH":"2021-09-02T04:55:29.469216","MEAN_ANOMALY":"296.4291","ELEMENT_SET_NO":"999","CENTER_NAME":"EARTH"},{"LAUNCH_DATE":"2020-11-25","ECCENTRICITY":"0.00016430","OBJECT_ID":"2020-088BF","GP_ID":"183962002","RCS_SIZE":"LARGE","REV_AT_EPOCH":"4353","TIME_SYSTEM":"UTC","SEMIMAJOR_AXIS":"6925.346","PERIAPSIS":"546.073","APOAPSIS":"548.349","CLASSIFICATION_TYPE":"U","ELEMENT_SET_NO":"999","CENTER_NAME":"EARTH","EPHEMERIS_TYPE":"0","DECAY_DATE":null,"EPOCH":"2021-09-02T09:39:26.229024","MEAN_ANOMALY":"288.0014","SITE":"AFETR","NORAD_CAT_ID":"47175","TLE_LINE1":"1 47175U 20088BF  21245.40238691  .00001332  00000-0  10829-3 0  9991","MEAN_ELEMENT_THEORY":"SGP4","ARG_OF_PERICENTER":"72.1154","FILE":"3107538","BSTAR":"0.00010829000000","TLE_LINE2":"2 47175  53.0548 125.5432 0001643  72.1154 288.0014 15.06400740 43532","INCLINATION":"53.0548","OBJECT_TYPE":"PAYLOAD","MEAN_MOTION_DDOT":"0.0000000000000","REF_FRAME":"TEME","OBJECT_NAME":"STARLINK-1895","COUNTRY_CODE":"US","RA_OF_ASC_NODE":"125.5432","PERIOD":"95.592","MEAN_MOTION":"15.06400740","MEAN_MOTION_DOT":"0.00001332"},{"COUNTRY_CODE":"US","OBJECT_NAME":"STARLINK-1907","RA_OF_ASC_NODE":"134.1485","MEAN_MOTION":"15.06388843","PERIOD":"95.593","MEAN_MOTION_DOT":"0.00001262","SITE":"AFETR","TLE_LINE1":"1 47177U 20088BH  21245.71848364  .00001262  00000-0  10365-3 0  9998","NORAD_CAT_ID":"47177","MEAN_ELEMENT_THEORY":"SGP4","BSTAR":"0.00010365000000","FILE":"3107724","ARG_OF_PERICENTER":"86.9064","OBJECT_TYPE":"PAYLOAD","TLE_LINE2":"2 47177  53.0550 134.1485 0001635  86.9064 273.2111 15.06388843 43448","INCLINATION":"53.0550","REF_FRAME":"TEME","MEAN_MOTION_DDOT":"0.0000000000000","SEMIMAJOR_AXIS":"6925.383","PERIAPSIS":"546.115","APOAPSIS":"548.380","CLASSIFICATION_TYPE":"U","TIME_SYSTEM":"UTC","ELEMENT_SET_NO":"999","CENTER_NAME":"EARTH","DECAY_DATE":null,"EPHEMERIS_TYPE":"0","EPOCH":"2021-09-02T17:14:36.986496","MEAN_ANOMALY":"273.2111","LAUNCH_DATE":"2020-11-25","GP_ID":"183988969","REV_AT_EPOCH":"4344","RCS_SIZE":"LARGE","OBJECT_ID":"2020-088BH","ECCENTRICITY":"0.00016350"},{"TLE_LINE1":"1 47178U 20088BJ  21245.76546290  .00003313  00000-0  24122-3 0  9992","NORAD_CAT_ID":"47178","MEAN_ELEMENT_THEORY":"SGP4","SITE":"AFETR","REF_FRAME":"TEME","MEAN_MOTION_DDOT":"0.0000000000000","FILE":"3107724","ARG_OF_PERICENTER":"65.6060","BSTAR":"0.00024122000000","TLE_LINE2":"2 47178  53.0539 143.9181 0001706  65.6060 294.5107 15.06398439 43304","OBJECT_TYPE":"PAYLOAD","INCLINATION":"53.0539","RA_OF_ASC_NODE":"143.9181","COUNTRY_CODE":"US","OBJECT_NAME":"STARLINK-1912","PERIOD":"95.592","MEAN_MOTION":"15.06398439","MEAN_MOTION_DOT":"0.00003313","GP_ID":"183988218","RCS_SIZE":"LARGE","REV_AT_EPOCH":"4330","OBJECT_ID":"2020-088BJ","ECCENTRICITY":"0.00017060","LAUNCH_DATE":"2020-11-25","PERIAPSIS":"546.037","SEMIMAJOR_AXIS":"6925.353","APOAPSIS":"548.400","CLASSIFICATION_TYPE":"U","TIME_SYSTEM":"UTC","EPHEMERIS_TYPE":"0","DECAY_DATE":null,"EPOCH":"2021-09-02T18:22:15.994560","MEAN_ANOMALY":"294.5107","ELEMENT_SET_NO":"999","CENTER_NAME":"EARTH"},{"MEAN_MOTION_DDOT":"0.0000000000000","REF_FRAME":"TEME","TLE_LINE2":"2 47179  53.0535 153.6898 0001754  68.4287 291.6889 15.06400722 43178","OBJECT_TYPE":"PAYLOAD","INCLINATION":"53.0535","ARG_OF_PERICENTER":"68.4287","FILE":"3107724","BSTAR":"0.00021255000000","MEAN_ELEMENT_THEORY":"SGP4","NORAD_CAT_ID":"47179","TLE_LINE1":"1 47179U 20088BK  21245.81982749  .00002886  00000-0  21255-3 0  9990","SITE":"AFETR","MEAN_MOTION_DOT":"0.00002886","MEAN_MOTION":"15.06400722","PERIOD":"95.592","RA_OF_ASC_NODE":"153.6898","OBJECT_NAME":"STARLINK-1913","COUNTRY_CODE":"US","ECCENTRICITY":"0.00017540","GP_ID":"183988468","REV_AT_EPOCH":"4317","RCS_SIZE":"LARGE","OBJECT_ID":"2020-088BK","LAUNCH_DATE":"2020-11-25","EPOCH":"2021-09-02T19:40:33.095136","MEAN_ANOMALY":"291.6889","EPHEMERIS_TYPE":"0","DECAY_DATE":null,"CENTER_NAME":"EARTH","ELEMENT_SET_NO":"999","TIME_SYSTEM":"UTC","APOAPSIS":"548.426","PERIAPSIS":"545.997","SEMIMAJOR_AXIS":"6925.346","CLASSIFICATION_TYPE":"U"},{"APOAPSIS":"439.503","PERIAPSIS":"438.249","CLASSIFICATION_TYPE":"U","SEMIMAJOR_AXIS":"6817.011","TIME_SYSTEM":"UTC","CENTER_NAME":"EARTH","ELEMENT_SET_NO":"999","EPOCH":"2021-09-02T18:14:42.603648","MEAN_ANOMALY":"276.2772","EPHEMERIS_TYPE":"0","DECAY_DATE":null,"LAUNCH_DATE":"2020-11-25","GP_ID":"183988719","OBJECT_ID":"2020-088BL","RCS_SIZE":"LARGE","REV_AT_EPOCH":"4324","ECCENTRICITY":"0.00009200","COUNTRY_CODE":"US","OBJECT_NAME":"STARLINK-1914","RA_OF_ASC_NODE":"148.4292","MEAN_MOTION_DOT":"0.00101456","MEAN_MOTION":"15.42452293","PERIOD":"93.358","SITE":"AFETR","MEAN_ELEMENT_THEORY":"SGP4","TLE_LINE1":"1 47180U 20088BL  21245.76021532  .00101456  00000-0  22875-2 0  9991","NORAD_CAT_ID":"47180","OBJECT_TYPE":"PAYLOAD","TLE_LINE2":"2 47180  53.0509 148.4292 0000920  83.8338 276.2772 15.42452293 43241","INCLINATION":"53.0509","FILE":"3107724","ARG_OF_PERICENTER":"83.8338","BSTAR":"0.00228750000000","REF_FRAME":"TEME","MEAN_MOTION_DDOT":"0.0000000000000"},{"GP_ID":"183960254","REV_AT_EPOCH":"4353","RCS_SIZE":"LARGE","OBJECT_ID":"2020-088BM","ECCENTRICITY":"0.00022910","LAUNCH_DATE":"2020-11-25","PERIAPSIS":"545.630","SEMIMAJOR_AXIS":"6925.352","APOAPSIS":"548.803","CLASSIFICATION_TYPE":"U","TIME_SYSTEM":"UTC","DECAY_DATE":null,"EPHEMERIS_TYPE":"0","EPOCH":"2021-09-02T09:28:49.144800","MEAN_ANOMALY":"288.7001","ELEMENT_SET_NO":"999","CENTER_NAME":"EARTH","TLE_LINE1":"1 47181U 20088BM  21245.39501325  .00001535  00000-0  12195-3 0  9996","NORAD_CAT_ID":"47181","MEAN_ELEMENT_THEORY":"SGP4","SITE":"AFETR","REF_FRAME":"TEME","MEAN_MOTION_DDOT":"0.0000000000000","ARG_OF_PERICENTER":"71.4237","FILE":"3107538","BSTAR":"0.00012195000000","TLE_LINE2":"2 47181  53.0550 125.5844 0002291  71.4237 288.7001 15.06398980 43538","INCLINATION":"53.0550","OBJECT_TYPE":"PAYLOAD","RA_OF_ASC_NODE":"125.5844","COUNTRY_CODE":"US","OBJECT_NAME":"STARLINK-1927","MEAN_MOTION":"15.06398980","PERIOD":"95.592","MEAN_MOTION_DOT":"0.00001535"},{"PERIAPSIS":"478.525","SEMIMAJOR_AXIS":"6857.558","APOAPSIS":"480.321","CLASSIFICATION_TYPE":"U","TIME_SYSTEM":"UTC","CENTER_NAME":"EARTH","ELEMENT_SET_NO":"999","MEAN_ANOMALY":"271.9711","EPOCH":"2021-09-02T13:08:50.273376","DECAY_DATE":null,"EPHEMERIS_TYPE":"0","LAUNCH_DATE":"2021-01-20","GP_ID":"183987986","RCS_SIZE":"LARGE","OBJECT_ID":"2021-005A","REV_AT_EPOCH":"3449","ECCENTRICITY":"0.00013100","COUNTRY_CODE":"US","OBJECT_NAME":"STARLINK-1952","RA_OF_ASC_NODE":"264.0135","MEAN_MOTION_DOT":"0.00526963","PERIOD":"94.192","MEAN_MOTION":"15.28792481","SITE":"AFETR","MEAN_ELEMENT_THEORY":"SGP4","TLE_LINE1":"1 47349U 21005A   21245.54780409  .00526963  00000-0  17306-1 0  9995","NORAD_CAT_ID":"47349","INCLINATION":"53.0503","TLE_LINE2":"2 47349  53.0503 264.0135 0001310  88.1437 271.9711 15.28792481 34497","OBJECT_TYPE":"PAYLOAD","FILE":"3107724","ARG_OF_PERICENTER":"88.1437","BSTAR":"0.01730600000000","REF_FRAME":"TEME","MEAN_MOTION_DDOT":"0.0000000000000"},{"TLE_LINE1":"1 47350U 21005B   21245.76479771 -.00000529  00000-0 -17136-4 0  9999","NORAD_CAT_ID":"47350","MEAN_ELEMENT_THEORY":"SGP4","SITE":"AFETR","MEAN_MOTION_DDOT":"0.0000000000000","REF_FRAME":"TEME","FILE":"3107724","BSTAR":"-0.00001713600000","ARG_OF_PERICENTER":"93.6325","TLE_LINE2":"2 47350  53.0523 263.9795 0001382  93.6325 266.4821 15.05581436 34512","INCLINATION":"53.0523","OBJECT_TYPE":"PAYLOAD","RA_OF_ASC_NODE":"263.9795","COUNTRY_CODE":"US","OBJECT_NAME":"STARLINK-2011","MEAN_MOTION":"15.05581436","PERIOD":"95.644","MEAN_MOTION_DOT":"-0.00000529","RCS_SIZE":"LARGE","GP_ID":"183989238","OBJECT_ID":"2021-005B","REV_AT_EPOCH":"3451","ECCENTRICITY":"0.00013820","LAUNCH_DATE":"2021-01-20","APOAPSIS":"550.681","PERIAPSIS":"548.766","CLASSIFICATION_TYPE":"U","SEMIMAJOR_AXIS":"6927.858","TIME_SYSTEM":"UTC","EPHEMERIS_TYPE":"0","DECAY_DATE":null,"EPOCH":"2021-09-02T18:21:18.522144","MEAN_ANOMALY":"266.4821","ELEMENT_SET_NO":"999","CENTER_NAME":"EARTH"}];
